STARLINK-5829           
1 56347U 23058AG  23138.50001157 -.00004631  00000+0 -88408-4 0  9996
2 56347  97.6619 138.8293 0001380 102.5145 242.5278 15.47509153  3608
STARLINK-5888           
1 56348U 23058AH  23138.50001157  .00017183  00000+0  33631-3 0  9998
2 56348  97.6607 138.8286 0001463 102.3060 241.5570 15.47485462  3604
STARLINK-5887           
1 56349U 23058AJ  23138.50001157 -.00013515  00000+0 -26191-3 0  9999
2 56349  97.6623 138.8304 0001452 103.0450 244.3550 15.47514815  3607
STARLINK-5886           
1 56350U 23058AK  23138.50001157 -.00008884  00000+0 -17144-3 0  9992
2 56350  97.6618 138.8297 0001411 101.9002 244.3213 15.47511652  3601
STARLINK-5891           
1 56351U 23058AL  23138.50001157 -.00015472  00000+0 -30017-3 0  9998
2 56351  97.6616 138.8306 0001459 100.9096 247.0795 15.47516320  3607
STARLINK-5885           
1 56352U 23058AM  23138.50001157 -.00006905  00000+0 -13279-3 0  9991
2 56352  97.6620 138.8295 0001389 100.7229 244.9091 15.47510411  3608
STARLINK-5874           
1 56353U 23058AN  23138.50001157 -.00052463  00000+0 -10263-2 0  9991
2 56353  97.6623 138.8329 0001489 101.0534 252.2326 15.47540487  3603
STARLINK-5877           
1 56354U 23058AP  23138.50001157 -.00011692  00000+0 -22629-3 0  9991
2 56354  97.6623 138.8300 0001434 102.0330 244.7779 15.47513403  3604
STARLINK-5533           
1 56355U 23058AQ  23138.50001157 -.00022993  00000+0 -44731-3 0  9996
2 56355  97.6624 138.8317 0001553 104.0294 246.3144 15.47523121  3609
STARLINK-5535           
1 56356U 23058AR  23138.58334491 -.00070596  00000+0 -13850-2 0  9994
2 56356  97.6619 138.9198 0001593  96.4446 356.6708 15.47537557  3619
STARLINK-5538           
1 56357U 23058AS  23138.50001157 -.00021037  00000+0 -40903-3 0  9993
2 56357  97.6626 138.8315 0001530 104.7311 245.0241 15.47521340  3608
STARLINK-5482           
1 56358U 23058AT  23138.58334491 -.00070231  00000+0 -13778-2 0  9991
2 56358  97.6619 138.9195 0001590 101.9643 350.5617 15.47536900  3619
STARLINK-5551           
1 56359U 23058AU  23138.50001157 -.00027978  00000+0 -54497-3 0  9998
2 56359  97.6631 138.8323 0001554  96.7936 254.7270 15.47527448  3608
STARLINK-5549           
1 56360U 23058AV  23138.50001157 -.00023876  00000+0 -46459-3 0  9992
2 56360  97.6624 138.8319 0001560 104.1873 246.7448 15.47524660  3609
STARLINK-5550           
1 56361U 23058AW  23138.50001157 -.00043538  00000+0 -85053-3 0  9993
2 56361  97.6633 138.8328 0001508 100.8653 251.8321 15.47536540  3608
STARLINK-5972           
1 56362U 23058AX  23138.58334491 -.00075251  00000+0 -14771-2 0  9997
2 56362  97.6621 138.9211 0001596  97.8703 358.1921 15.47542046  3612
FALCON 9 DEB            
1 56363U 23058AY  23138.05243547  .00224169  20699-4  67891-3 0  9996
2 56363  97.6713 139.0475 0036669 172.7243 187.4570 15.90916916  3724
FALCON 9 DEB            
1 56364U 23058AZ  23137.92045945  .00237741  23173-4  70239-3 0  9994
2 56364  97.6673 138.9085 0034875 170.6443 189.5488 15.91499920  3702
FALCON 9 DEB            
1 56365U 23058BA  23138.46827408  .00295909  35899-4  76284-3 0  9991
2 56365  97.6604 139.5613 0037368 166.0502 194.1813 15.93883822  3799
FALCON 9 DEB            
1 56366U 23058BB  23138.46592157  .00270571  30257-4  70111-3 0  9996
2 56366  97.6609 139.5638 0036904 163.1283 197.1228 15.93823387  3794
2023-059A               
1 56367U 23059A   23134.39977557  .00000049  00000+0  00000+0 0  9992
2 56367   8.5987   0.2844 1878035 224.4640 118.8781  7.26267968  1152
2023-059B               
1 56368U 23059B   23128.66151220  .00000054  00000+0  60270-2 0  9991
2 56368   8.1821   8.1410 1827344 207.7748 141.1643  7.15155120   713
2023-059C               
1 56369U 23059C   23137.27640507  .00000051  00000+0  75792-3 0  9993
2 56369   8.6041 356.0864 1880312 232.8652 108.4604  7.26703492  1333
VIASAT-3                
1 56370U 23060A   23137.59243809 -.00000187  00000+0  00000+0 0  9993
2 56370   0.0219 264.1203 0000388 148.6104 306.6678  1.00274090   151
ARCTURUS                
1 56371U 23060B   23138.44129316  .00000129  00000+0  00000+0 0  9990
2 56371   0.0641  45.4573 0001001  17.4243 169.0338  1.00272897   170
GS-1                    
1 56372U 23060C   23137.14980253 -.00000056  00000+0  00000+0 0  9992
2 56372   0.0776  61.6938 0009679  55.3862 186.4198  1.04491279   125
FALCON HEAVY R/B        
1 56373U 23060D   23138.07619035 -.00000110  00000+0  00000+0 0  9994
2 56373   0.0796  62.9106 0010031 166.1880  78.1695  1.04744515   161
STARLINK-6156           
1 56374U 23061A   23138.04956865  .00006690  00000+0  54412-4 0  9997
2 56374  42.9996  28.6556 0001909 270.9698  89.0951 15.71360065  2488
STARLINK-6158           
1 56375U 23061B   23138.11291966  .00003155  00000+0  27492-4 0  9991
2 56375  43.0006  28.2696 0002095 272.6327  87.4301 15.71361926  2476
STARLINK-6188           
1 56376U 23061C   23138.04946420  .00009253  00000+0  73904-4 0  9990
2 56376  42.9999  28.6556 0002071 269.1712  90.8919 15.71362972  2462
STARLINK-6189           
1 56377U 23061D   23137.09582464  .00000221  00000+0  51305-5 0  9997
2 56377  43.0008  34.4047 0001866 270.2248  89.8406 15.71356471  2022
STARLINK-6191           
1 56378U 23061E   23138.11239432  .00002482  00000+0  22367-4 0  9992
2 56378  43.0001  28.2666 0001890 275.3699  84.6953 15.71360690  2474
STARLINK-6157           
1 56379U 23061F   23138.11271028  .00010629  00000+0  84357-4 0  9999
2 56379  42.9997  28.2693 0002018 268.4713  91.5924 15.71365437  2479
STARLINK-6161           
1 56380U 23061G   23138.04893762  .00013030  00000+0  10260-3 0  9998
2 56380  43.0000  28.6519 0002187 276.3485  83.7134 15.71367140  2468
STARLINK-6159           
1 56381U 23061H   23138.04904286  .00014235  00000+0  11174-3 0  9996
2 56381  43.0003  28.6521 0002224 269.1683  90.8930 15.71370719  2466
STARLINK-6160           
1 56382U 23061J   23138.11218486  .00005436  00000+0  44861-4 0  9998
2 56382  42.9996  28.2652 0001994 267.6297  92.4343 15.71360521  2471
STARLINK-6166           
1 56383U 23061K   23138.04872844  .00006723  00000+0  54659-4 0  9991
2 56383  42.9994  28.6498 0002002 267.9773  92.0866 15.71360640  2462
STARLINK-6153           
1 56384U 23061L   23138.11186905  .00011397  00000+0  90195-4 0  9994
2 56384  43.0002  28.2623 0002164 273.6962  86.3659 15.71365572  2470
STARLINK-6173           
1 56385U 23061M   23138.04851695  .00005368  00000+0  44344-4 0  9998
2 56385  43.0002  28.6478 0002101 272.6993  87.3635 15.71364156  2468
STARLINK-5836           
1 56386U 23061N   23138.04809778  .00012473  00000+0  98376-4 0  9993
2 56386  43.0002  28.6441 0001918 260.5085  99.5566 15.71365353  2460
STARLINK-6178           
1 56387U 23061P   23138.04841229  .00004933  00000+0  41035-4 0  9993
2 56387  42.9997  28.6462 0002053 262.8788  97.1846 15.71361862  2467
STARLINK-6176           
1 56388U 23061Q   23138.04778137  .00002277  00000+0  20809-4 0  9996
2 56388  43.0001  28.6418 0002111 264.6651  95.3976 15.71359604  2466
STARLINK-6145           
1 56389U 23061R   23138.04820361  .00010325  00000+0  82055-4 0  9998
2 56389  43.0003  28.6445 0001838 264.1332  95.9326 15.71363887  2468
STARLINK-6300           
1 56390U 23061S   23138.11113401  .00003036  00000+0  26590-4 0  9991
2 56390  42.9998  28.2554 0001650 274.9372  85.1308 15.71352932  2474
STARLINK-6298           
1 56391U 23061T   23138.11155302  .00007535  00000+0  60823-4 0  9993
2 56391  42.9998  28.2599 0001955 265.6892  94.3752 15.71366915  2477
STARLINK-6301           
1 56392U 23061U   23138.11123789  .00003639  00000+0  31178-4 0  9990
2 56392  42.9996  28.2579 0001913 271.6496  88.4152 15.71362580  2477
STARLINK-6303           
1 56393U 23061V   23138.04788661  .00001487  00000+0  14785-4 0  9993
2 56393  43.0003  28.6417 0001726 266.6659  93.4011 15.71359552  2465
STARLINK-6305           
1 56394U 23061W   23138.11081175  .00010410  00000+0  82673-4 0  9995
2 56394  43.0003  28.2544 0003090 253.8409 106.2118 15.71371456  2479
STARLINK-6273           
1 56395U 23061X   23138.11092250  .00015995  00000+0  12510-3 0  9997
2 56395  42.9999  28.2564 0002359 261.6433  98.4168 15.71371073  2477
STARLINK-6302           
1 56396U 23061Y   23138.11060776  .00012066  00000+0  95279-4 0  9996
2 56396  43.0008  28.2511 0001896 270.3193  89.7457 15.71366057  2478
STARLINK-6271           
1 56397U 23061Z   23138.04746583  .00005788  00000+0  47539-4 0  9995
2 56397  43.0000  28.6387 0002063 269.0453  91.0179 15.71362992  2467
STARLINK-6288           
1 56398U 23061AA  23138.11050241  .00011590  00000+0  91661-4 0  9996
2 56398  43.0003  28.2515 0002067 270.9681  89.0949 15.71366030  2478
STARLINK-6277           
1 56399U 23061AB  23137.09372235  .00002386  00000+0  21640-4 0  9996
2 56399  43.0001  34.3875 0001809 268.4503  91.6158 15.71356030  2023
STARLINK-6267           
1 56400U 23061AC  23138.11029322  .00000528  00000+0  74761-5 0  9998
2 56400  42.9998  28.2499 0001852 265.7924  94.2733 15.71356297  2470
STARLINK-6256           
1 56401U 23061AD  23138.04652174  .00001224  00000+0  12782-4 0  9996
2 56401  42.9999  28.6295 0001727 265.8595  94.2075 15.71357133  2464
STARLINK-6269           
1 56402U 23061AE  23138.10997744  .00005331  00000+0  44066-4 0  9992
2 56402  42.9996  28.2468 0001847 262.4615  97.6043 15.71360546  2474
STARLINK-6284           
1 56403U 23061AF  23138.04683616  .00019510  00000+0  15176-3 0  9999
2 56403  42.9997  28.6351 0002200 266.8234  93.2382 15.71373080  2464
STARLINK-6287           
1 56404U 23061AG  23138.04620575  .00012027  00000+0  94996-4 0  9999
2 56404  43.0002  28.6278 0001718 269.7968  90.2703 15.71364031  2461
STARLINK-6285           
1 56405U 23061AH  23138.04662618  .00012048  00000+0  95146-4 0  9995
2 56405  43.0003  28.6333 0001756 278.0613  82.0056 15.71365371  2465
